IRIDIUM 7               
1 24793U 97020B   24291.50478507  .00001779  00000+0  61197-3 0  9997
2 24793  86.3900 278.5749 0002244  95.5006 264.6446 14.35508783437079
IRIDIUM 5               
1 24795U 97020D   24291.47471055  .00010374  00000+0  93998-3 0  9991
2 24795  86.3980 195.2294 0114114 288.0243  70.8576 14.90328116449267
IRIDIUM 4               
1 24796U 97020E   24291.71145072  .00001555  00000+0  52426-3 0  9998
2 24796  86.3897 275.5212 0002201  88.8993 271.2456 14.36428443437689
IRIDIUM 914             
1 24836U 97030A   24291.68995842  .00002081  00000+0  65031-3 0  9999
2 24836  86.3876 284.8678 0001258  42.1195 318.0101 14.40344733434316
IRIDIUM 16              
1 24841U 97030F   24291.56698956  .00001717  00000+0  55888-3 0  9992
2 24841  86.3992 307.2359 0004005 115.8804 244.2807 14.38230109432381
IRIDIUM 911             
1 24842U 97030G   24291.52041379  .00002194  00000+0  59776-3 0  9990
2 24842  86.4416 306.2701 0014171 177.5640 182.5634 14.46974565439965
IRIDIUM 17              
1 24870U 97034B   24291.40407061  .00001617  00000+0  53572-3 0  9993
2 24870  86.3976 336.8774 0003841  91.0440 269.1197 14.37344202428700
IRIDIUM 920             
1 24871U 97034C   24291.51493415  .00001624  00000+0  49878-3 0  9996
2 24871  86.3951 316.6191 0012438 152.8264 207.3589 14.41036894431629
